GALILEO B               
1 67161U 25302B   25351.56766358 -.00000008  00000+0  00000+0 0  9992
2 67161  54.2323 107.2467 0005026 244.2530 115.6540  1.72975560    28
ARIANE 6 R/B            
1 67162U 25302C   25351.56761753 -.00000008  00000+0  00000+0 0  9997
2 67162  54.2338 107.2768 0000483 122.0904 237.8731  1.73128064    51
